[{"OBJECT_NAME":"STARLINK-31970","OBJECT_ID":"2024-106G","EPOCH":"2026-03-09T02:39:02.417760","MEAN_MOTION":15.27580902,"ECCENTRICITY":0.00011668,"INCLINATION":43.0032,"RA_OF_ASC_NODE":335.8462,"ARG_OF_PERICENTER":262.4083,"MEAN_ANOMALY":97.6636,"EPHEMERIS_TYPE":0,"CLASSIFICATION_TYPE":"U","NORAD_CAT_ID":59928,"ELEMENT_SET_NO":999,"REV_AT_EPOCH":10048,"BSTAR":-6.2900407e-5,"MEAN_MOTION_DOT":-1.993e-5,"MEAN_MOTION_DDOT":0},{"OBJECT_NAME":"KUIPER-00274","OBJECT_ID":"2026-030AE","EPOCH":"2026-03-09T22:00:01.999584","MEAN_MOTION":15.29896925,"ECCENTRICITY":0.00182929,"INCLINATION":51.8831,"RA_OF_ASC_NODE":218.6923,"ARG_OF_PERICENTER":71.2033,"MEAN_ANOMALY":115.2248,"EPHEMERIS_TYPE":0,"CLASSIFICATION_TYPE":"U","NORAD_CAT_ID":67792,"ELEMENT_SET_NO":999,"REV_AT_EPOCH":410,"BSTAR":0.0017989756,"MEAN_MOTION_DOT":0.00053102,"MEAN_MOTION_DDOT":0}]
